ONEWEB-0612             
1 54675U 22166AK  23346.75454480 -.00000165  00000+0 -43006-3 0  9998
2 54675  87.9251  66.6006 0001821  93.8904 266.2438 13.21825597 50234
ONEWEB-0615             
1 54676U 22166AL  23346.73561085  .00000056  00000+0  10364-3 0  9995
2 54676  87.9264  66.6244 0001527  99.2053 260.9253 13.21825499 50249
ONEWEB-0655             
1 54677U 22166AM  23347.16299579  .00000109  00000+0  23261-3 0  9999
2 54677  87.9256  66.5418 0001463  89.6378 270.4924 13.21826259 50768
ONEWEB-0659             
1 54678U 22166AN  23346.72615940  .00000016  00000+0  76200-5 0  9995
2 54678  87.9232  66.6426 0001989 109.8377 250.2971 13.21826146 50325
ONEWEB-0685             
1 54679U 22166AP  23346.72772519  .00000016  00000+0  62494-5 0  9992
2 54679  87.9261  66.6240 0001470  75.5212 284.6085 13.21823769 50217
ONEWEB-0712             
1 54680U 22166AQ  23346.73186627  .00000047  00000+0  90445-4 0  9994
2 54680  87.9074  51.3918 0001737 117.8618 242.2689 13.16589630 51334
ONEWEB-0714             
1 54681U 22166AR  23346.73403062  .00000029  00000+0  38321-4 0  9995
2 54681  87.9251  66.6090 0001545  94.1972 265.9339 13.21827007 50331
ONEWEB-0532             
1 55140U 23004A   23346.64757745  .00000033  00000+0  51731-4 0  9993
2 55140  87.9207 188.2718 0002330  78.3219 281.8174 13.17646269 46751
